{
  "type": "FeatureCollection",
  "features": [
    {
      "type": "Feature",
      "properties": {
        "norad_id": 38709,
        "name": "EXACTVIEW-1 (ADS-1B)",
        "group": "resource",
        "lat": 72.1286887098105,
        "lon": 59.81875157366635,
        "alt_km": 798.3028999622329,
        "timestamp": "2025-12-06T20:37:55.715940+00:00",
        "meta_object_name": "EXACTVIEW-1 (ADS-1B)",
        "meta_object_id": "2012-039C",
        "meta_epoch": "2025-12-06T06:48:08.630208",
        "meta_mean_motion": 14.24903906,
        "meta_eccentricity": 0.0011011,
        "meta_inclination": 98.9635,
        "meta_ra_of_asc_node": 88.5381,
        "meta_arg_of_pericenter": 12.6195,
        "meta_mean_anomaly": 347.5257,
        "meta_ephemeris_type": 0,
        "meta_classification_type": "U",
        "meta_norad_cat_id": 38709,
        "meta_element_set_no": 999,
        "meta_rev_at_epoch": 69523,
        "meta_bstar": 0.00016500663,
        "meta_mean_motion_dot": 3.39e-06,
        "meta_mean_motion_ddot": 0,
        "tle_line1": "1 38709U 12039C   25340.28343322  .00000339  00000+0  16501-3 0  9993",
        "tle_line2": "2 38709  98.9635  88.5381 0011011  12.6195 347.5257 14.24903906695236"
      },
      "geometry": {
        "type": "Point",
        "coordinates": [
          59.81875157366635,
          72.1286887098105
        ]
      }
    },
    {
      "type": "Feature",
      "properties": {
        "norad_id": 38755,
        "name": "SPOT 6",
        "group": "resource",
        "lat": 67.61253731244078,
        "lon": -113.86699208961375,
        "alt_km": 690.379258099565,
        "timestamp": "2025-12-06T20:37:55.715951+00:00",
        "meta_object_name": "SPOT 6",
        "meta_object_id": "2012-047A",
        "meta_epoch": "2025-12-06T15:11:11.344416",
        "meta_mean_motion": 14.58594718,
        "meta_eccentricity": 0.00010691,
        "meta_inclination": 98.1582,
        "meta_ra_of_asc_node": 45.5295,
        "meta_arg_of_pericenter": 101.5765,
        "meta_mean_anomaly": 258.5555,
        "meta_ephemeris_type": 0,
        "meta_classification_type": "U",
        "meta_norad_cat_id": 38755,
        "meta_element_set_no": 999,
        "meta_rev_at_epoch": 70498,
        "meta_bstar": 0.00019454907,
        "meta_mean_motion_dot": 8.6e-06,
        "meta_mean_motion_ddot": 0,
        "tle_line1": "1 38755U 12047A   25340.63277019  .00000860  00000+0  19455-3 0  9991",
        "tle_line2": "2 38755  98.1582  45.5295 0001069 101.5765 258.5555 14.58594718704989"
      },
      "geometry": {
        "type": "Point",
        "coordinates": [
          -113.86699208961375,
          67.61253731244078
        ]
      }
    },
    {
      "type": "Feature",
      "properties": {
        "norad_id": 39019,
        "name": "PLEIADES 1B",
        "group": "resource",
        "lat": 10.255554473420066,
        "lon": 52.11284781958128,
        "alt_km": 699.2214348846837,
        "timestamp": "2025-12-06T20:37:55.715962+00:00",
        "meta_object_name": "PLEIADES 1B",
        "meta_object_id": "2012-068A",
        "meta_epoch": "2025-12-06T15:38:43.496448",
        "meta_mean_motion": 14.58544105,
        "meta_eccentricity": 0.00012249,
        "meta_inclination": 98.1803,
        "meta_ra_of_asc_node": 53.3997,
        "meta_arg_of_pericenter": 87.1374,
        "meta_mean_anomaly": 272.9965,
        "meta_ephemeris_type": 0,
        "meta_classification_type": "U",
        "meta_norad_cat_id": 39019,
        "meta_element_set_no": 999,
        "meta_rev_at_epoch": 69278,
        "meta_bstar": 0.00019759013,
        "meta_mean_motion_dot": 8.73e-06,
        "meta_mean_motion_ddot": 0,
        "tle_line1": "1 39019U 12068A   25340.65189232  .00000873  00000+0  19759-3 0  9990",
        "tle_line2": "2 39019  98.1803  53.3997 0001224  87.1374 272.9965 14.58544105692787"
      },
      "geometry": {
        "type": "Point",
        "coordinates": [
          52.11284781958128,
          10.255554473420066
        ]
      }
    },
    {
      "type": "Feature",
      "properties": {
        "norad_id": 39030,
        "name": "GOKTURK 2",
        "group": "resource",
        "lat": -51.71795921061981,
        "lon": -7.055797422054937,
        "alt_km": 651.6343018748039,
        "timestamp": "2025-12-06T20:37:55.715973+00:00",
        "meta_object_name": "GOKTURK 2",
        "meta_object_id": "2012-073A",
        "meta_epoch": "2025-12-06T14:41:56.252832",
        "meta_mean_motion": 14.75278391,
        "meta_eccentricity": 8.595e-05,
        "meta_inclination": 97.6904,
        "meta_ra_of_asc_node": 182.5673,
        "meta_arg_of_pericenter": 101.3827,
        "meta_mean_anomaly": 258.748,
        "meta_ephemeris_type": 0,
        "meta_classification_type": "U",
        "meta_norad_cat_id": 39030,
        "meta_element_set_no": 999,
        "meta_rev_at_epoch": 69611,
        "meta_bstar": 0.00018813882,
        "meta_mean_motion_dot": 1.227e-05,
        "meta_mean_motion_ddot": 0,
        "tle_line1": "1 39030U 12073A   25340.61245663  .00001227  00000+0  18814-3 0  9991",
        "tle_line2": "2 39030  97.6904 182.5673 0000859 101.3827 258.7480 14.75278391696112"
      },
      "geometry": {
        "type": "Point",
        "coordinates": [
          -7.055797422054937,
          -51.71795921061981
        ]
      }
    },
    {
      "type": "Feature",
      "properties": {
        "norad_id": 39084,
        "name": "LANDSAT 8",
        "group": "resource",
        "lat": -30.693050106354196,
        "lon": -135.89528870295672,
        "alt_km": 708.9986976872733,
        "timestamp": "2025-12-06T20:37:55.715985+00:00",
        "meta_object_name": "LANDSAT 8",
        "meta_object_id": "2013-008A",
        "meta_epoch": "2025-12-06T14:43:22.439424",
        "meta_mean_motion": 14.57104999,
        "meta_eccentricity": 0.00011456,
        "meta_inclination": 98.208,
        "meta_ra_of_asc_node": 48.7772,
        "meta_arg_of_pericenter": 86.1685,
        "meta_mean_anomaly": 273.9644,
        "meta_ephemeris_type": 0,
        "meta_classification_type": "U",
        "meta_norad_cat_id": 39084,
        "meta_element_set_no": 999,
        "meta_rev_at_epoch": 66985,
        "meta_bstar": 0.00019637687,
        "meta_mean_motion_dot": 8.39e-06,
        "meta_mean_motion_ddot": 0,
        "tle_line1": "1 39084U 13008A   25340.61345416  .00000839  00000+0  19638-3 0  9999",
        "tle_line2": "2 39084  98.2080  48.7772 0001145  86.1685 273.9644 14.57104999669851"
      },
      "geometry": {
        "type": "Point",
        "coordinates": [
          -135.89528870295672,
          -30.693050106354196
        ]
      }
    },
    {
      "type": "Feature",
      "properties": {
        "norad_id": 39086,
        "name": "SARAL",
        "group": "resource",
        "lat": -8.76273050771014,
        "lon": 166.19554214192996,
        "alt_km": 787.7565896761225,
        "timestamp": "2025-12-06T20:37:55.715996+00:00",
        "meta_object_name": "SARAL",
        "meta_object_id": "2013-009A",
        "meta_epoch": "2025-12-06T13:58:09.079392",
        "meta_mean_motion": 14.32753842,
        "meta_eccentricity": 0.00027236,
        "meta_inclination": 98.5506,
        "meta_ra_of_asc_node": 164.5928,
        "meta_arg_of_pericenter": 120.4746,
        "meta_mean_anomaly": 239.6707,
        "meta_ephemeris_type": 0,
        "meta_classification_type": "U",
        "meta_norad_cat_id": 39086,
        "meta_element_set_no": 999,
        "meta_rev_at_epoch": 66802,
        "meta_bstar": 0.00011512136,
        "meta_mean_motion_dot": 2.7e-06,
        "meta_mean_motion_ddot": 0,
        "tle_line1": "1 39086U 13009A   25340.58204953  .00000270  00000+0  11512-3 0  9990",
        "tle_line2": "2 39086  98.5506 164.5928 0002723 120.4746 239.6707 14.32753842668029"
      },
      "geometry": {
        "type": "Point",
        "coordinates": [
          166.19554214192996,
          -8.76273050771014
        ]
      }
    },
    {
      "type": "Feature",
      "properties": {
        "norad_id": 39150,
        "name": "GAOFEN-1",
        "group": "resource",
        "lat": -73.8546292187713,
        "lon": 80.41975976675391,
        "alt_km": 654.4195674695757,
        "timestamp": "2025-12-06T20:37:55.716007+00:00",
        "meta_object_name": "GAOFEN-1",
        "meta_object_id": "2013-018A",
        "meta_epoch": "2025-12-06T14:28:14.753856",
        "meta_mean_motion": 14.76517792,
        "meta_eccentricity": 0.0017868,
        "meta_inclination": 97.9335,
        "meta_ra_of_asc_node": 51.3706,
        "meta_arg_of_pericenter": 162.2124,
        "meta_mean_anomaly": 197.9715,
        "meta_ephemeris_type": 0,
        "meta_classification_type": "U",
        "meta_norad_cat_id": 39150,
        "meta_element_set_no": 999,
        "meta_rev_at_epoch": 67982,
        "meta_bstar": 0.00024056446,
        "meta_mean_motion_dot": 1.63e-05,
        "meta_mean_motion_ddot": 0,
        "tle_line1": "1 39150U 13018A   25340.60294854  .00001630  00000+0  24056-3 0  9992",
        "tle_line2": "2 39150  97.9335  51.3706 0017868 162.2124 197.9715 14.76517792679826"
      },
      "geometry": {
        "type": "Point",
        "coordinates": [
          80.41975976675391,
          -73.8546292187713
        ]
      }
    }
  ]
}